{"type":"FeatureCollection","features":[{"type":"Feature","geometry":{"type":"MultiPolygon","coordinates":[[[[73.73041708585717,15.62252676403032],[73.71446201310242,15.65077329743638],[73.70199209852314,15.69057362905515],[73.6981441686297,15.69249779218891],[73.69943305819675,15.69925502560567],[73.6942011218389,15.70134220790955],[73.69024682406769,15.72212482295937],[73.67965093892559,15.72088997208606],[73.68020085202338,15.72536760187218],[73.67538205017924,15.72702215761493],[73.6857056789196,15.73009811430275],[73.69730023891324,15.72302508512084],[73.71150128845082,15.72593690392421],[73.72811519374989,15.72003893431692],[73.73190504941637,15.72281013525299],[73.74183925885997,15.73580988512552],[73.7651226146381,15.73363937861056],[73.78520430775195,15.72586719791879],[73.79069825749637,15.73565239276493],[73.80082620371309,15.7353607499058],[73.81015327892507,15.74319454464594],[73.82390702108567,15.74072836455114],[73.83110000129282,15.75355285429141],[73.83001796953793,15.76526676063025],[73.83774160316015,15.76709689375157],[73.84346376785273,15.78155589389614],[73.85188058246996,15.78104560340243],[73.84699475023433,15.78664836142735],[73.85654791030798,15.80124459696274],[73.86747380626745,15.79702941335257],[73.86595638324444,15.78520902370272],[73.8798644545846,15.77457852659633],[73.87234965314879,15.75910493316216],[73.87573468773495,15.75107946757109],[73.93874683334478,15.74344938355634],[73.94331438962985,15.72567979374611],[73.9522347690919,15.71678956446123],[73.94496847819664,15.69944554606394],[73.95980469431284,15.69970787145196],[73.96414472110142,15.69202937654787],[73.96341586362378,15.67179272338344],[73.9680886481082,15.66042819397294],[73.9615797228387,15.64201225219293],[73.9725525662682,15.62799250041651],[73.9792116354321,15.62751771462937],[73.99099943990392,15.61202917773562],[74.0171580473875,15.60763459849885],[74.02670521265544,15.61011758227858],[74.03119153161987,15.62305408893928],[74.07890798446593,15.63119879754357],[74.11762538812398,15.65174481146918],[74.11794877756233,15.65183887660837],[74.13484949236941,15.64832776947324],[74.16491516855821,15.65360269533369],[74.16740737908917,15.67179195136372],[74.18140023564887,15.68227476829591],[74.18901833286336,15.68043370839785],[74.18607054958389,15.6687431292589],[74.20344481595065,15.66360606358244],[74.2025535060503,15.6542112619876],[74.20450280461527,15.65070736934294],[74.22047720911024,15.65435486479499],[74.22229305527316,15.6570055095639],[74.2145307183238,15.66322209019046],[74.2238267710522,15.6690074458448],[74.22817747826105,15.66513721358469],[74.23599075259732,15.66851165767695],[74.24447862132843,15.65845686868165],[74.25049549509808,15.65783138257794],[74.24391198867747,15.62581631385005],[74.24780728829744,15.62293790883023],[74.25476559590143,15.62643445640455],[74.264046096261,15.61579516434384],[74.26038478068072,15.59275861731137],[74.24856813530398,15.58042306206717],[74.24480404043992,15.5671323315219],[74.25737050796839,15.56222486725119],[74.26190529809784,15.56560171101121],[74.27793843174433,15.54574941592941],[74.2823333636379,15.53192323697013],[74.27855656429493,15.52284096943851],[74.27419522683557,15.51271740549329],[74.25433808570565,15.50254048417403],[74.25089796513882,15.4933184452735],[74.2299680349309,15.48653522787557],[74.22092520325155,15.47780362982445],[74.19781254350158,15.46833510475447],[74.18539114345654,15.44606536718425],[74.1759872301933,15.4395811216265],[74.16664085178874,15.44414676950853],[74.14014687296796,15.44150849683573],[74.13388977736417,15.43575348368078],[74.1259702144957,15.43865440842931],[74.11722157262261,15.43428487861669],[74.10899898195437,15.42019281158498],[74.10590686517888,15.42774243709568],[74.09724856439503,15.42626545919299],[74.07188921987681,15.41236554431252],[74.0535840192638,15.41089705761295],[74.04726304616939,15.42157163534037],[74.0519405224157,15.43565260024308],[74.04661063179346,15.43454779368868],[74.03646501729693,15.45003414259234],[74.03433805449929,15.45272195950637],[74.04183918141348,15.45061098286327],[74.01631958504562,15.49759405115506],[73.99934604492107,15.50115259569219],[73.9914874171234,15.51276569369683],[73.96957732925353,15.5250906999576],[73.96194276442776,15.53952987627652],[73.96026629143724,15.54193859096138],[73.950651034827,15.52493729736446],[73.9445522180774,15.52436142501025],[73.96044135896234,15.50203455151114],[73.95421032333587,15.49748796931466],[73.95160866238834,15.47724229995647],[73.95581700037363,15.46845504047619],[73.95539364088947,15.46255718469107],[73.94637019040157,15.45462293606002],[73.94560552948478,15.43901961171134],[73.93647852072768,15.43478680303631],[73.9348730235807,15.43722248306626],[73.91056088326164,15.42508873523425],[73.90419973034872,15.41758383881554],[73.89455187894585,15.41974909941876],[73.88058907659733,15.43506406056312],[73.88179468717402,15.43097880558128],[73.86315708475017,15.42895514265685],[73.86041781527291,15.44181802479658],[73.85219167319151,15.44989491051958],[73.84721417873241,15.45269403519385],[73.83986886087172,15.44912464904309],[73.83200309910734,15.45262607249777],[73.81271401108071,15.45602399629473],[73.80423299853567,15.45465810131244],[73.80314512555633,15.45035110765386],[73.78790999014076,15.46249908486313],[73.80201741747999,15.46111192047912],[73.80808893781183,15.47497623030856],[73.814323389013,15.49199405777409],[73.82189037137543,15.49847512579827],[73.83479545157648,15.50031276000374],[73.86773668477085,15.50616656048407],[73.89383999478959,15.50262994717468],[73.91005856238387,15.50569167228582],[73.91169278130822,15.51022162789192],[73.88607430145599,15.5081064301657],[73.87674118989797,15.51108244086955],[73.89303106779704,15.53180467844934],[73.91938037477566,15.54154049412806],[73.92426719136316,15.54159326965896],[73.90323435047661,15.54990283243464],[73.89532444580314,15.54585327931502],[73.87737844812297,15.52126571940739],[73.86076180039295,15.51287236652641],[73.85173320412085,15.51467653487903],[73.85991639788864,15.52609649949025],[73.8486280529406,15.52439420262951],[73.83645008319193,15.50796281091061],[73.82807422156574,15.50859883027013],[73.81323801035984,15.50735839044863],[73.80594905825839,15.49583354594386],[73.79158595170232,15.50049279420799],[73.78277292661669,15.49800738825879],[73.78814905434763,15.49470052358096],[73.77580214943917,15.49062977774154],[73.76622943257384,15.49466168394673],[73.75503917605711,15.54642521216671],[73.74898410972378,15.56252653505267],[73.74124059889037,15.5653371674865],[73.73191521737483,15.59070357872747],[73.73168053492411,15.60775308211223],[73.73993791714311,15.60675447420841],[73.7375462849835,15.61705555762886],[73.73041708585717,15.62252676403032]]],[[[73.90427383060175,15.54038464687759],[73.90177545260465,15.53854630712617],[73.89937124706582,15.54154973502075],[73.91014813589645,15.54700226968712],[73.90427383060175,15.54038464687759]]]]},"properties":{"ST_NAME":"Goa","DIST_NAME":"North Goa"}},{"type":"Feature","geometry":{"type":"Polygon","coordinates":[[[73.96194276442776,15.53952987627652],[73.96957732925353,15.5250906999576],[73.9914874171234,15.51276569369683],[73.99934604492107,15.50115259569219],[74.01631958504562,15.49759405115506],[74.04183918141348,15.45061098286327],[74.03433805449929,15.45272195950637],[74.03646501729693,15.45003414259234],[74.04661063179346,15.43454779368868],[74.0519405224157,15.43565260024308],[74.04726304616939,15.42157163534037],[74.0535840192638,15.41089705761295],[74.07188921987681,15.41236554431252],[74.07640370791277,15.39284240116839],[74.08877428930865,15.38973892886135],[74.10281652717256,15.36919274833719],[74.10016111059464,15.35656121842139],[74.10379944334687,15.34861491754979],[74.09842613694883,15.34894414744491],[74.084039978254,15.32703725977536],[74.09296230199415,15.29918716708678],[74.10674822535542,15.28679533788018],[74.10217620563252,15.27220909297441],[74.09482650395995,15.27126080666312],[74.08779785873381,15.27749480435589],[74.08220781962915,15.28059648499329],[74.07539459355549,15.27669517833207],[74.05593062750859,15.25954821573752],[74.0461464887143,15.2551313765851],[74.04251133584324,15.24668085564358],[74.04468838714324,15.23496269452772],[74.06257189031936,15.22687931840111],[74.05602292868858,15.21745672823247],[74.06921283699248,15.20695733958607],[74.0631801685767,15.18074507907771],[74.04159703658509,15.17829271167199],[74.03602542384226,15.16911319583688],[74.03429410823036,15.15799131273382],[74.04768056844796,15.14216964183926],[74.03709549900199,15.13736002964624],[74.02392860310582,15.13875826284437],[74.006438938995,15.16136410842253],[73.99597398446288,15.15672556743749],[73.95927734898586,15.13958219068672],[73.94927768669102,15.14338512214334],[73.94241693775002,15.17028978868523],[73.90914636834168,15.28817841685677],[73.8974404748454,15.3237495084199],[73.87441397677473,15.36997094154189],[73.85436713178248,15.36633422056396],[73.85166036485315,15.3611535477017],[73.84174603884576,15.36030734285422],[73.83330006820306,15.37033091511485],[73.82431671205502,15.37082110645532],[73.80823808559688,15.37710881611646],[73.8060910708721,15.39369518114946],[73.79147133118586,15.39434658052185],[73.78387492605054,15.41365555283877],[73.79487894264628,15.41438691727536],[73.80666778556173,15.39935725122749],[73.81610282317811,15.40333822160775],[73.8171979909523,15.4105466018287],[73.8230933148524,15.40836104314032],[73.8240886056642,15.4031962118385],[73.82915034764584,15.40706785093269],[73.84126812453263,15.41016186937723],[73.84656518557938,15.39816660486918],[73.85417347759065,15.40114973945134],[73.85865593589958,15.39766104212927],[73.86290749283954,15.401437988672],[73.87487277079637,15.3964600242042],[73.8831606385823,15.39892380969091],[73.89186307051136,15.40855662995387],[73.90315680288109,15.40348508361623],[73.90668629359678,15.40896562271079],[73.91308956303604,15.40449237660756],[73.92280206234103,15.40538627609577],[73.939848890019,15.40863906052301],[73.92569864660724,15.41617061297814],[73.92605851921537,15.42250046270998],[73.93647852072768,15.43478680303631],[73.94560552948478,15.43901961171134],[73.94637019040157,15.45462293606002],[73.95539364088947,15.46255718469107],[73.95581700037363,15.46845504047619],[73.95160866238834,15.47724229995647],[73.95421032333587,15.49748796931466],[73.96044135896234,15.50203455151114],[73.9445522180774,15.52436142501025],[73.950651034827,15.52493729736446],[73.96026629143724,15.54193859096138],[73.96194276442776,15.53952987627652]]]},"properties":{"ST_NAME":"Goa","DIST_NAME":"South Goa"}},{"type":"Feature","geometry":{"type":"Polygon","coordinates":[[[73.98181645056539,15.05495843762445],[73.97438512001162,15.0507892478988],[73.96702908495934,15.06592357833864],[73.95462535499775,15.07367861874686],[73.93184048384846,15.0791270326409],[73.92552651404357,15.08654742443323],[73.9120963603947,15.08570218642934],[73.92693771638449,15.09694075157599],[73.92503694213207,15.10571034839227],[73.91798211117447,15.10809976588533],[73.93537379572824,15.11213956938935],[73.94094916653928,15.12060606092656],[73.93596724103038,15.13390641716352],[73.94927768669102,15.14338512214334],[73.95927734898586,15.13958219068672],[73.99597398446288,15.15672556743749],[74.006438938995,15.16136410842253],[74.02392860310582,15.13875826284437],[74.03709549900199,15.13736002964624],[74.04768056844796,15.14216964183926],[74.03429410823036,15.15799131273382],[74.03602542384226,15.16911319583688],[74.04159703658509,15.17829271167199],[74.0631801685767,15.18074507907771],[74.06921283699248,15.20695733958607],[74.05602292868858,15.21745672823247],[74.06257189031936,15.22687931840111],[74.04468838714324,15.23496269452772],[74.04251133584324,15.24668085564358],[74.0461464887143,15.2551313765851],[74.05593062750859,15.25954821573752],[74.07539459355549,15.27669517833207],[74.08220781962915,15.28059648499329],[74.08779785873381,15.27749480435589],[74.09482650395995,15.27126080666312],[74.10217620563252,15.27220909297441],[74.10674822535542,15.28679533788018],[74.09296230199415,15.29918716708678],[74.084039978254,15.32703725977536],[74.09842613694883,15.34894414744491],[74.10379944334687,15.34861491754979],[74.10016111059464,15.35656121842139],[74.10281652717256,15.36919274833719],[74.08877428930865,15.38973892886135],[74.07640370791277,15.39284240116839],[74.07188921987681,15.41236554431252],[74.09724856439503,15.42626545919299],[74.10590686517888,15.42774243709568],[74.10899898195437,15.42019281158498],[74.11722157262261,15.43428487861669],[74.1259702144957,15.43865440842931],[74.13388977736417,15.43575348368078],[74.14014687296796,15.44150849683573],[74.16664085178874,15.44414676950853],[74.1759872301933,15.4395811216265],[74.18539114345654,15.44606536718425],[74.19781254350158,15.46833510475447],[74.22092520325155,15.47780362982445],[74.2299680349309,15.48653522787557],[74.25089796513882,15.4933184452735],[74.27774200973957,15.44053734442738],[74.26887101308543,15.41963329720382],[74.27864510679862,15.40522404792988],[74.27656196234638,15.39026716020533],[74.28306712108368,15.38303714629249],[74.29894949218999,15.38201096006679],[74.32310294276897,15.36745829820148],[74.31626208452374,15.36222923773329],[74.32214424666776,15.34305141962856],[74.31673236509891,15.33060607084957],[74.32087552354176,15.31492372312744],[74.33599926988776,15.29510630802547],[74.32608488373755,15.28365564137398],[74.3080697214351,15.28315039324678],[74.29454216207478,15.28876847224689],[74.29377766951566,15.28456815691778],[74.28173139288988,15.28016011286957],[74.27260475263141,15.28199445523983],[74.26113107467381,15.26072829051506],[74.25135970749412,15.25786757170155],[74.25961366876886,15.24075739293854],[74.28704434080878,15.23197920774569],[74.29105845844445,15.23469555465593],[74.30134511431943,15.22445108292671],[74.29990913000846,15.21911958469949],[74.30483863480147,15.21607114054239],[74.31050347983827,15.19439606846835],[74.31673521716787,15.18694541282617],[74.29570480643757,15.15147878971624],[74.28505566078019,15.14836307181891],[74.28297509084003,15.13055668923899],[74.28670164260643,15.12137624550008],[74.28242757931261,15.10660508606888],[74.27634684338231,15.10517707991826],[74.27256853251065,15.09742632730744],[74.2789845702982,15.09536235498654],[74.28054125941254,15.0690563162541],[74.28989574781724,15.06473818764263],[74.29544823901676,15.04555982376466],[74.29625324929361,15.04120380689322],[74.28335793503379,15.03165916347442],[74.28359032182047,15.0237965436744],[74.26683923567384,15.00715778922696],[74.26783178443912,15.00190369484051],[74.25346963243153,14.9973804898819],[74.25230402122081,14.99252983516713],[74.26443774784686,14.97849848914853],[74.25469625214019,14.96972852320833],[74.2536839263894,14.96049638807947],[74.24893076279267,14.95949411483174],[74.23705564882678,14.96752041209604],[74.23054299012048,14.95105749679556],[74.21373175018088,14.94730193690796],[74.20126474393878,14.9255969697717],[74.19253231045637,14.9322322459158],[74.19195290351558,14.94415425613818],[74.17918377384584,14.95063172635052],[74.1790550955695,14.95733468855909],[74.16379928327068,14.95859002676348],[74.15911812171686,14.95574757854639],[74.15393952714214,14.93968290077053],[74.16618838451063,14.91897306429323],[74.1620840135981,14.91189562745028],[74.14154880650625,14.92261960825608],[74.12449184935043,14.9253047325053],[74.11996406874827,14.91659444025787],[74.11501443448205,14.91824783590795],[74.10479890557632,14.91286679715851],[74.10178907243584,14.91562068237754],[74.08568785826286,14.90064173779628],[74.08097449815776,14.91055044926406],[74.06667053906297,14.90727968828813],[74.04403020244644,14.91752470196883],[74.04746510024201,14.93457118800429],[74.04333503091185,14.94764913923543],[74.04985287059836,14.95918081929136],[74.0404228106003,14.98235360504467],[74.03527227282753,14.98361060837593],[74.03929783975198,14.98493684061471],[74.03488621039139,14.99721189268822],[74.0279963518044,14.99833310060125],[74.03006406123625,15.00109673516036],[74.02413106546553,15.00258173251128],[74.02725989794492,15.00559545002799],[74.02132181406621,15.01152805203599],[74.01294993098585,15.01049059928953],[73.99716622655778,15.02168725874348],[73.99283357223827,15.01813867131821],[73.98894938595951,15.02041753251876],[73.98533772729199,15.02645263635375],[73.990121264686,15.03410415515017],[73.98181645056539,15.05495843762445]]]},"properties":{"ST_NAME":"Goa","DIST_NAME":"Kushavati"}}]}